$$SOE
2461295.500000000, A.D. 2026-Sep-12 00:00:00.0000, -7.215767590345855E+07, 4.546693075339951E+08, -6.848657001544461E+07,
2461302.500000000, A.D. 2026-Sep-19 00:00:00.0000, -8.179670357923307E+07, 4.511622825791984E+08, -6.905648803089011E+07,
2461309.500000000, A.D. 2026-Sep-26 00:00:00.0000, -9.139606212641945E+07, 4.474356054469816E+08, -6.959274488922796E+07,
2461316.500000000, A.D. 2026-Oct-03 00:00:00.0000, -1.009505759114480E+08, 4.434886172686180E+08, -7.009469363557892E+07,
2461323.500000000, A.D. 2026-Oct-10 00:00:00.0000, -1.104549756367481E+08, 4.393207684293922E+08, -7.056169192515317E+07,
2461330.500000000, A.D. 2026-Oct-17 00:00:00.0000, -1.199038991940778E+08, 4.349316240647895E+08, -7.099310283313927E+07,
2461337.500000000, A.D. 2026-Oct-24 00:00:00.0000, -1.292918927730765E+08, 4.303208696060870E+08, -7.138829571839392E+07,
2461344.500000000, A.D. 2026-Oct-31 00:00:00.0000, -1.386134121434531E+08, 4.254883163023340E+08, -7.174664715632522E+07,
2461351.500000000, A.D. 2026-Nov-07 00:00:00.0000, -1.478628237895956E+08, 4.204339067851837E+08, -7.206754196675318E+07,
2461358.500000000, A.D. 2026-Nov-14 00:00:00.0000, -1.570344057154265E+08, 4.151577215554820E+08, -7.235037428343250E+07,
2461365.500000000, A.D. 2026-Nov-21 00:00:00.0000, -1.661223497500429E+08, 4.096599870648492E+08, -7.259454844447967E+07,
2461372.500000000, A.D. 2026-Nov-28 00:00:00.0000, -1.751207663690023E+08, 4.039410823729384E+08, -7.279947985841638E+07,
2461379.500000000, A.D. 2026-Dec-05 00:00:00.0000, -1.840236884293520E+08, 3.980015437080526E+08, -7.296459623043303E+07,
2461386.500000000, A.D. 2026-Dec-12 00:00:00.0000, -1.928250736734233E+08, 3.918420700271069E+08, -7.308933890968764E+07,
2461393.500000000, A.D. 2026-Dec-19 00:00:00.0000, -2.015188079059778E+08, 3.854635295656258E+08, -7.317316418393061E+07,
2461400.500000000, A.D. 2026-Dec-26 00:00:00.0000, -2.100987090032700E+08, 3.788669664890924E+08, -7.321554457769208E+07,
2461407.500000000, A.D. 2027-Jan-02 00:00:00.0000, -2.185585314958064E+08, 3.720536074309800E+08, -7.321597019271716E+07,
2461414.500000000, A.D. 2027-Jan-09 00:00:00.0000, -2.268919716267736E+08, 3.650248679127529E+08, -7.317395009778307E+07,
2461421.500000000, A.D. 2027-Jan-16 00:00:00.0000, -2.350926728697758E+08, 3.577823586292405E+08, -7.308901376887782E+07,
2461428.500000000, A.D. 2027-Jan-23 00:00:00.0000, -2.431542318774610E+08, 3.503278915332475E+08, -7.296071258565827E+07,
2461435.500000000, A.D. 2027-Jan-30 00:00:00.0000, -2.510702046886873E+08, 3.426634856427595E+08, -7.278862140315986E+07,
2461442.500000000, A.D. 2027-Feb-06 00:00:00.0000, -2.588341127829780E+08, 3.347913728786799E+08, -7.257234020688666E+07,
2461449.500000000, A.D. 2027-Feb-13 00:00:00.0000, -2.664394494551902E+08, 3.267140051179382E+08, -7.231149570585376E+07,
2461456.500000000, A.D. 2027-Feb-20 00:00:00.0000, -2.738796888855314E+08, 3.184340616353853E+08, -7.200574270809217E+07,
2461463.500000000, A.D. 2027-Feb-27 00:00:00.0000, -2.811482965152315E+08, 3.099544536828979E+08, -7.165476566479991E+07,
2461470.500000000, A.D. 2027-Mar-06 00:00:00.0000, -2.882387377133336E+08, 3.012783280850993E+08, -7.125828049665457E+07,
2461477.500000000, A.D. 2027-Mar-13 00:00:00.0000, -2.951444863391845E+08, 2.924090718585975E+08, -7.081603638307212E+07,
2461484.500000000, A.D. 2027-Mar-20 00:00:00.0000, -3.018590343296276E+08, 2.833503169788715E+08, -7.032781747420332E+07,
2461491.500000000, A.D. 2027-Mar-27 00:00:00.0000, -3.083759021027758E+08, 2.741059447018744E+08, -6.979344458259681E+07,
2461498.500000000, A.D. 2027-Apr-03 00:00:00.0000, -3.146886495656027E+08, 2.646800893462815E+08, -6.921277686958179E+07,
2461505.500000000, A.D. 2027-Apr-10 00:00:00.0000, -3.207908876505767E+08, 2.550771415120188E+08, -6.858571352209461E+07,
2461512.500000000, A.D. 2027-Apr-17 00:00:00.0000, -3.266762903415534E+08, 2.453017506727694E+08, -6.791219541462287E+07,
2461519.500000000, A.D. 2027-Apr-24 00:00:00.0000, -3.323386070874807E+08, 2.353588270320428E+08, -6.719220675956860E+07,
2461526.500000000, A.D. 2027-May-01 00:00:00.0000, -3.377716752771950E+08, 2.252535426224189E+08, -6.642577676165809E+07,
2461533.500000000, A.D. 2027-May-08 00:00:00.0000, -3.429694324359297E+08, 2.149913323484133E+08, -6.561298123336670E+07,
2461540.500000000, A.D. 2027-May-15 00:00:00.0000, -3.479259296044443E+08, 2.045778958794867E+08, -6.475394394607615E+07,
2461547.500000000, A.D. 2027-May-22 00:00:00.0000, -3.526353474247013E+08, 1.940191977580983E+08, -6.384883777573928E+07,
2461554.500000000, A.D. 2027-May-29 00:00:00.0000, -3.570920115277222E+08, 1.833214642138761E+08, -6.289788605995949E+07,
2461561.500000000, A.D. 2027-Jun-05 00:00:00.0000, -3.612904062832835E+08, 1.724911797736648E+08, -6.190136397914545E+07,
2461568.500000000, A.D. 2027-Jun-12 00:00:00.0000, -3.652251888628719E+08, 1.615350840603200E+08, -6.085959973128869E+07,
2461575.500000000, A.D. 2027-Jun-19 00:00:00.0000, -3.688912038868167E+08, 1.504601678133051E+08, -5.977297553630485E+07,
2461582.500000000, A.D. 2027-Jun-26 00:00:00.0000, -3.722834983093049E+08, 1.392736678424037E+08, -5.864192850611867E+07,
2461589.500000000, A.D. 2027-Jul-03 00:00:00.0000, -3.753973363373536E+08, 1.279830608994652E+08, -5.746695138091536E+07,
2461596.500000000, A.D. 2027-Jul-10 00:00:00.0000, -3.782282142714509E+08, 1.165960564587886E+08, -5.624859312359255E+07,
2461603.500000000, A.D. 2027-Jul-17 00:00:00.0000, -3.807718751528393E+08, 1.051205883553384E+08, -5.498745936884367E+07,
2461610.500000000, A.D. 2027-Jul-24 00:00:00.0000, -3.830243229795074E+08, 9.356480521278088E+07, -5.368421273691494E+07,
2461617.500000000, A.D. 2027-Jul-31 00:00:00.0000, -3.849818359955605E+08, 8.193705989877529E+07, -5.233957302179717E+07,
2461624.500000000, A.D. 2027-Aug-07 00:00:00.0000, -3.866409791691334E+08, 7.024589916839464E+07, -5.095431713347906E+07,
2461631.500000000, A.D. 2027-Aug-14 00:00:00.0000, -3.879986180749583E+08, 5.850005325910330E+07, -4.952927859756947E+07,
2461638.500000000, A.D. 2027-Aug-21 00:00:00.0000, -3.890519334805324E+08, 4.670842209995741E+07, -4.806534693940066E+07,
2461645.500000000, A.D. 2027-Aug-28 00:00:00.0000, -3.897984331194044E+08, 3.488005937614293E+07, -4.656346716442408E+07,
2461652.500000000, A.D. 2027-Sep-04 00:00:00.0000, -3.902359617436149E+08, 2.302415699532773E+07, -4.502463901703133E+07,
2461659.500000000, A.D. 2027-Sep-11 00:00:00.0000, -3.903627107652705E+08, 1.115002934378698E+07, -4.344991594076438E+07,
2461666.500000000, A.D. 2027-Sep-18 00:00:00.0000, -3.901772272746956E+08, -7.329032606427576E+05, -4.184040380455703E+07,
2461673.500000000, A.D. 2027-Sep-25 00:00:00.0000, -3.896784221322753E+08, -1.261513193163756E+07, -4.019725942356473E+07,
2461680.500000000, A.D. 2027-Oct-02 00:00:00.0000, -3.888655769923874E+08, -2.448707729401186E+07, -3.852168888280381E+07,
2461687.500000000, A.D. 2027-Oct-09 00:00:00.0000, -3.877383501789025E+08, -3.633910820411014E+07, -3.681494567188054E+07,
2461694.500000000, A.D. 2027-Oct-16 00:00:00.0000, -3.862967812983408E+08, -4.816156107711555E+07, -3.507832864835199E+07,
2461701.500000000, A.D. 2027-Oct-23 00:00:00.0000, -3.845412942863749E+08, -5.994475973153052E+07, -3.331317986210262E+07,
2461708.500000000, A.D. 2027-Oct-30 00:00:00.0000, -3.824726984750561E+08, -7.167903504045017E+07, -3.152088223411729E+07,
2461715.500000000, A.D. 2027-Nov-06 00:00:00.0000, -3.800921888139386E+08, -8.335474315874256E+07, -2.970285690080440E+07,
2461722.500000000, A.D. 2027-Nov-13 00:00:00.0000, -3.774013472108368E+08, -9.496228429858848E+07, -2.786056022329278E+07,
2461729.500000000, A.D. 2027-Nov-20 00:00:00.0000, -3.744021420836388E+08, -1.064921241337723E+08, -2.599548092009484E+07,
2461736.500000000, A.D. 2027-Nov-27 00:00:00.0000, -3.710969245079321E+08, -1.179348147596276E+08, -2.410913724335158E+07,
2461743.500000000, A.D. 2027-Dec-04 00:00:00.0000, -3.674884229927647E+08, -1.292810141864991E+08, -2.220307395294238E+07,
2461750.500000000, A.D. 2027-Dec-11 00:00:00.0000, -3.635797374544399E+08, -1.405215052265940E+08, -2.027885913280155E+07,
2461757.500000000, A.D. 2027-Dec-18 00:00:00.0000, -3.593743321457169E+08, -1.516472140126618E+08, -1.833808091981008E+07,
2461764.500000000, A.D. 2027-Dec-25 00:00:00.0000, -3.548760274315339E+08, -1.626492280524439E+08, -1.638234417723862E+07,
2461771.500000000, A.D. 2028-Jan-01 00:00:00.0000, -3.500889904212781E+08, -1.735188137099600E+08, -1.441326713320396E+07,
$$EOE